{"fetched_at":"2026-03-29T02:12:04Z","count":15717,"tles":[{"name":"STARLINK-3129","line1":"1 49453U 21104AX  26087.42664981 -.00000403  00000+0 -72488-5 0  9998","line2":"2 49453  53.2170 135.0965 0001410  96.2565 263.8588 15.08829204241605","category":"Starlink"}]}