{
  "norad_id": 49453,
  "name": "STARLINK-3129",
  "history": [
    {
      "epoch": "2026-03-28T10:14:22.543584",
      "apogee_km": 540.7518140015973,
      "perigee_km": 538.8009624261222,
      "latitude_deg": -52.38865177173404,
      "longitude_deg": -113.74161823978648,
      "semi_major_axis_km": 6917.913388213859,
      "eccentricity": 0.000141,
      "inclination_deg": 53.217,
      "raan_deg": 135.0965,
      "arg_perigee_deg": 96.2565,
      "mean_anomaly_deg": 263.8588,
      "mean_motion_rev_day": 15.08829204
    }
  ]
}